{
    "links": {
        "self": "http://www.neowsapp.com/rest/v1/neo/3478651?api_key=iIulBulltgU6a56xZRHN4H3l9WmuAYTsLGpBGhQ2"
    },
    "id": "3478651",
    "neo_reference_id": "3478651",
    "name": "(2009 WA54)",
    "designation": "2009 WA54",
    "nasa_jpl_url": "http://ssd.jpl.nasa.gov/sbdb.cgi?sstr=3478651",
    "absolute_magnitude_h": 26.8,
    "estimated_diameter": {
        "kilometers": {
            "estimated_diameter_min": 0.0116025908,
            "estimated_diameter_max": 0.0259441818
        },
        "meters": {
            "estimated_diameter_min": 11.6025908209,
            "estimated_diameter_max": 25.9441817907
        },
        "miles": {
            "estimated_diameter_min": 0.0072095135,
            "estimated_diameter_max": 0.0161209622
        },
        "feet": {
            "estimated_diameter_min": 38.066244069,
            "estimated_diameter_max": 85.1187093863
        }
    },
    "is_potentially_hazardous_asteroid": false,
    "close_approach_data": [
        {
            "close_approach_date": "1920-12-20",
            "close_approach_date_full": "1920-Dec-20 21:34",
            "epoch_date_close_approach": -1547259960000,
            "relative_velocity": {
                "kilometers_per_second": "17.2174179608",
                "kilometers_per_hour": "61982.7046590557",
                "miles_per_hour": "38513.6422366227"
            },
            "miss_distance": {
                "astronomical": "0.3499122795",
                "lunar": "136.1158767255",
                "kilometers": "52346131.700044665",
                "miles": "32526377.970219777"
            },
            "orbiting_body": "Earth"
        },
        {
            "close_approach_date": "2003-12-25",
            "close_approach_date_full": "2003-Dec-25 14:49",
            "epoch_date_close_approach": 1072363740000,
            "relative_velocity": {
                "kilometers_per_second": "18.9577186599",
                "kilometers_per_hour": "68247.787175707",
                "miles_per_hour": "42406.5208703719"
            },
            "miss_distance": {
                "astronomical": "0.4102727349",
                "lunar": "159.5960938761",
                "kilometers": "61375927.260114663",
                "miles": "38137232.7524538294"
            },
            "orbiting_body": "Earth"
        },
        {
            "close_approach_date": "2005-12-17",
            "close_approach_date_full": "2005-Dec-17 01:20",
            "epoch_date_close_approach": 1134782400000,
            "relative_velocity": {
                "kilometers_per_second": "14.6411523746",
                "kilometers_per_hour": "52708.1485484848",
                "miles_per_hour": "32750.793746696"
            },
            "miss_distance": {
                "astronomical": "0.2624250339",
                "lunar": "102.0833381871",
                "kilometers": "39258226.106117793",
                "miles": "24393930.5407518234"
            },
            "orbiting_body": "Earth"
        },
        {
            "close_approach_date": "2007-12-07",
            "close_approach_date_full": "2007-Dec-07 11:10",
            "epoch_date_close_approach": 1197025800000,
            "relative_velocity": {
                "kilometers_per_second": "10.5003555883",
                "kilometers_per_hour": "37801.2801177821",
                "miles_per_hour": "23488.2454154074"
            },
            "miss_distance": {
                "astronomical": "0.12168377",
                "lunar": "47.33498653",
                "kilometers": "18203632.8055699",
                "miles": "11311212.91746862"
            },
            "orbiting_body": "Earth"
        },
        {
            "close_approach_date": "2009-11-20",
            "close_approach_date_full": "2009-Nov-20 06:02",
            "epoch_date_close_approach": 1258696920000,
            "relative_velocity": {
                "kilometers_per_second": "7.156926324",
                "kilometers_per_hour": "25764.9347665105",
                "miles_per_hour": "16009.3284942243"
            },
            "miss_distance": {
                "astronomical": "0.0180038486",
                "lunar": "7.0034971054",
                "kilometers": "2693337.402362482",
                "miles": "1673562.2577149716"
            },
            "orbiting_body": "Earth"
        }
    ],
    "orbital_data": {
        "orbit_id": "8",
        "orbit_determination_date": "2017-04-06 08:58:56",
        "first_observation_date": "2009-11-23",
        "last_observation_date": "2009-11-24",
        "data_arc_in_days": 1,
        "observations_used": 18,
        "orbit_uncertainty": "8",
        "minimum_orbit_intersection": ".0172142",
        "jupiter_tisserand_invariant": "4.310",
        "epoch_osculation": "2455159.5",
        "eccentricity": ".3807940415806219",
        "semi_major_axis": "1.577254613271332",
        "inclination": "6.897533443320418",
        "ascending_node_longitude": "245.050548301007",
        "orbital_period": "723.5209924327464",
        "perihelion_distance": ".9766454544820609",
        "perihelion_argument": "150.3938898728373",
        "aphelion_distance": "2.177863772060604",
        "perihelion_time": "2455136.572648503858",
        "mean_anomaly": "11.40788812617395",
        "mean_motion": ".4975667655330168",
        "equinox": "J2000",
        "orbit_class": {
            "orbit_class_type": "APO",
            "orbit_class_description": "Near-Earth asteroid orbits which cross the Earth’s orbit similar to that of 1862 Apollo",
            "orbit_class_range": "a (semi-major axis) > 1.0 AU; q (perihelion) < 1.017 AU"
        }
    },
    "is_sentry_object": false
}